NORAD_CAT_ID,OBJECT_NAME,OBJECT_TYPE,EPOCH,MEAN_MOTION,ECCENTRICITY,INCLINATION,RA_OF_ASC_NODE,ARG_OF_PERICENTER,MEAN_ANOMALY,BSTAR,MEAN_MOTION_DOT,MEAN_MOTION_DDOT,TLE_LINE0,TLE_LINE1,TLE_LINE2,SEMIMAJOR_AXIS,PERIOD,APOGEE,PERIGEE,DECAYED
53888.0,STARLINK-5034,PAYLOAD,2023-06-10 08:42:43,15.08840761,0.0001104,53.215,148.4189,88.2546,271.8573,4.9266e-05,4.96e-06,0.0,0 STARLINK-5034,1 53888U 22119C   23161.36300065  .00000496  00000-0  49266-4 0  9993,2 53888  53.2150 148.4189 0001104  88.2546 271.8573 15.08840761 39795,6917.878,95.438,540.507,538.979,0.0
53888.0,STARLINK-5034,PAYLOAD,2023-06-11 08:33:30,15.08841586,0.0001145,53.2149,143.9582,89.9235,270.1888,3.9401e-05,3.39e-06,0.0,0 STARLINK-5034,1 53888U 22119C   23162.35660023  .00000339  00000-0  39401-4 0  9992,2 53888  53.2149 143.9582 0001145  89.9235 270.1888 15.08841586 40360,6917.876,95.437,540.533,538.948,0.0
53888.0,STARLINK-5034,PAYLOAD,2023-06-11 22:51:59,15.08835024,0.0001157,53.2146,141.2814,91.4503,268.6622,4.9186e-06,-2.1e-06,0.0,0 STARLINK-5034,1 53888U 22119C   23162.95276633 -.00000210  00000-0  49186-5 0  9999,2 53888  53.2146 141.2814 0001157  91.4503 268.6622 15.08835024 40453,6917.896,95.438,540.561,538.96,0.0
53888.0,STARLINK-5034,PAYLOAD,2023-06-12 02:02:45,15.08833573,0.0001157,53.2147,140.6866,91.7426,268.3698,-8.0184e-06,-4.15e-06,0.0,0 STARLINK-5034,1 53888U 22119C   23163.08524795 -.00000415  00000-0 -80184-5 0  9990,2 53888  53.2147 140.6866 0001157  91.7426 268.3698 15.08833573 40470,6917.9,95.438,540.565,538.965,0.0
53888.0,STARLINK-5034,PAYLOAD,2023-06-12 22:42:46,15.0883748,0.0001112,53.2147,136.8209,89.8318,270.2801,2.0792e-05,4.3e-07,0.0,0 STARLINK-5034,1 53888U 22119C   23163.94636691  .00000043  00000-0  20792-4 0  9997,2 53888  53.2147 136.8209 0001112  89.8318 270.2801 15.08837480 40601,6917.888,95.438,540.522,538.984,0.0
53888.0,STARLINK-5034,PAYLOAD,2023-06-13 08:15:04,15.08840579,0.0001128,53.2149,135.037,87.7933,272.3188,4.3034e-05,3.97e-06,0.0,0 STARLINK-5034,1 53888U 22119C   23164.34380418  .00000397  00000-0  43034-4 0  9991,2 53888  53.2149 135.0370 0001128  87.7933 272.3188 15.08840579 40244,6917.879,95.438,540.524,538.963,0.0
53888.0,STARLINK-5034,PAYLOAD,2023-06-14 08:05:51,15.08837523,0.0001217,53.2156,130.5773,90.7386,269.3746,9.1866e-05,1.174e-05,0.0,0 STARLINK-5034,1 53888U 22119C   23165.33740699  .00001174  00000-0  91866-4 0  9992,2 53888  53.2156 130.5773 0001217  90.7386 269.3746 15.08837523 40818,6917.888,95.438,540.595,538.911,0.0
53888.0,STARLINK-5034,PAYLOAD,2023-06-14 20:48:57,15.08835157,0.0001243,53.2155,128.1985,94.0034,266.11,-3.004e-05,-7.66e-06,0.0,0 STARLINK-5034,1 53888U 22119C   23165.86733352 -.00000766  00000-0 -30040-4 0  9993,2 53888  53.2155 128.1985 0001243  94.0034 266.1100 15.08835157 40899,6917.895,95.438,540.62,538.9,0.0
53888.0,STARLINK-5034,PAYLOAD,2023-06-15 03:10:30,15.08833581,0.0001213,53.216,127.009,95.1196,264.9934,-3.373e-05,-8.25e-06,0.0,0 STARLINK-5034,1 53888U 22119C   23166.13229613 -.00000825  00000-0 -33730-4 0  9999,2 53888  53.2160 127.0090 0001213  95.1196 264.9934 15.08833581 40517,6917.9,95.438,540.604,538.926,0.0
53888.0,STARLINK-5034,PAYLOAD,2023-06-15 06:21:16,15.08834405,0.0001192,53.2158,126.4142,90.0342,270.0787,-2.7209e-05,-7.21e-06,0.0,0 STARLINK-5034,1 53888U 22119C   23166.26477585 -.00000721  00000-0 -27209-4 0  9995,2 53888  53.2158 126.4142 0001192  90.0342 270.0787 15.08834405 40956,6917.897,95.438,540.587,538.938,0.0
53888.0,STARLINK-5034,PAYLOAD,2023-06-16 01:25:53,15.08842648,0.0001163,53.216,122.8455,91.8645,268.248,4.6551e-05,4.53e-06,0.0,0 STARLINK-5034,1 53888U 22119C   23167.05964904  .00000453  00000-0  46551-4 0  9990,2 53888  53.2160 122.8455 0001163  91.8645 268.2480 15.08842648 40653,6917.872,95.437,540.542,538.933,0.0
53888.0,STARLINK-5034,PAYLOAD,2023-06-16 06:12:02,15.08850656,0.0001204,53.216,121.9535,91.2927,268.8204,0.00011397,1.527e-05,0.0,0 STARLINK-5034,1 53888U 22119C   23167.25836164  .00001527  00000-0  11397-3 0  9990,2 53888  53.2160 121.9535 0001204  91.2927 268.8204 15.08850656 40686,6917.848,95.437,540.546,538.88,0.0
53888.0,STARLINK-5034,PAYLOAD,2023-06-16 14:08:58,15.08844443,0.0001287,53.2164,120.4669,86.1282,273.9857,4.5077e-05,4.3e-06,0.0,0 STARLINK-5034,1 53888U 22119C   23167.58956730  .00000430  00000-0  45077-4 0  9993,2 53888  53.2164 120.4669 0001287  86.1282 273.9857 15.08844443 40734,6917.867,95.437,540.622,538.841,0.0
53888.0,STARLINK-5034,PAYLOAD,2023-06-16 20:30:31,15.08838509,0.0001292,53.216,119.2772,85.0553,275.0586,8.7002e-05,1.097e-05,0.0,0 STARLINK-5034,1 53888U 22119C   23167.85452992  .00001097  00000-0  87002-4 0  9998,2 53888  53.2160 119.2772 0001292  85.0553 275.0586 15.08838509 41195,6917.885,95.438,540.644,538.856,0.0
53888.0,STARLINK-5034,PAYLOAD,2023-06-17 06:02:49,15.08842327,0.0001161,53.2156,117.4926,86.0341,274.0784,0.00011112,1.481e-05,0.0,0 STARLINK-5034,1 53888U 22119C   23168.25196648  .00001481  00000-0  11112-3 0  9991,2 53888  53.2156 117.4926 0001161  86.0341 274.0784 15.08842327 41251,6917.873,95.437,540.541,538.935,0.0
53888.0,STARLINK-5034,PAYLOAD,2023-06-17 13:59:46,15.08837686,0.0001157,53.2155,116.0069,84.4785,275.6339,3.7597e-05,3.11e-06,0.0,0 STARLINK-5034,1 53888U 22119C   23168.58317175  .00000311  00000-0  37597-4 0  9994,2 53888  53.2155 116.0069 0001157  84.4785 275.6339 15.08837686 40885,6917.887,95.438,540.553,538.952,0.0
53888.0,STARLINK-5034,PAYLOAD,2023-06-18 05:53:37,15.08838001,0.0001272,53.2161,113.0328,91.0362,269.0776,-9.9003e-05,-1.863e-05,0.0,0 STARLINK-5034,1 53888U 22119C   23169.24557727 -.00001863  00000-0 -99003-4 0  9992,2 53888  53.2161 113.0328 0001272  91.0362 269.0776 15.08838001 41403,6917.886,95.438,540.631,538.872,0.0
53888.0,STARLINK-5034,PAYLOAD,2023-06-18 13:50:33,15.08840593,0.0001215,53.2159,111.5441,101.6793,258.4336,-6.6351e-05,-1.344e-05,0.0,0 STARLINK-5034,1 53888U 22119C   23169.57677408 -.00001344  00000-0 -66351-4 0  9991,2 53888  53.2159 111.5441 0001215 101.6793 258.4336 15.08840593 41450,6917.879,95.438,540.584,538.903,0.0
53888.0,STARLINK-5034,PAYLOAD,2023-06-19 05:44:24,15.0884529,0.000113,53.2155,108.5707,92.8325,267.2796,2.5981e-05,1.26e-06,0.0,0 STARLINK-5034,1 53888U 22119C   23170.23916917  .00000126  00000-0  25981-4 0  9996,2 53888  53.2155 108.5707 0001130  92.8325 267.2796 15.08845290 41137,6917.864,95.437,540.511,538.948,0.0
53888.0,STARLINK-5034,PAYLOAD,2023-06-20 02:24:25,15.08833913,0.0001017,53.2153,104.707,87.4954,272.6154,0.00010744,1.422e-05,0.0,0 STARLINK-5034,1 53888U 22119C   23171.10029554  .00001422  00000-0  10744-3 0  9995,2 53888  53.2153 104.7070 0001017  87.4954 272.6154 15.08833913 41269,6917.899,95.438,540.468,539.06,0.0
53888.0,STARLINK-5034,PAYLOAD,2023-06-20 05:35:11,15.08836832,0.0001251,53.2164,104.1108,89.8285,270.2851,6.4529e-05,7.39e-06,0.0,0 STARLINK-5034,1 53888U 22119C   23171.23277575  .00000739  00000-0  64529-4 0  9998,2 53888  53.2164 104.1108 0001251  89.8285 270.2851 15.08836832 41700,6917.89,95.438,540.621,538.89,0.0
53888.0,STARLINK-5034,PAYLOAD,2023-06-21 02:15:12,15.0884443,0.0001223,53.2162,100.2459,89.307,270.8062,7.6189e-05,9.25e-06,0.0,0 STARLINK-5034,1 53888U 22119C   23172.09388994  .00000925  00000-0  76189-4 0  9993,2 53888  53.2162 100.2459 0001223  89.3070 270.8062 15.08844430 41411,6917.867,95.437,540.578,538.886,0.0
53888.0,STARLINK-5034,PAYLOAD,2023-06-21 11:47:31,15.08842601,0.0001113,53.2157,98.4599,85.1659,274.946,3.0721e-05,2.01e-06,0.0,0 STARLINK-5034,1 53888U 22119C   23172.49133265  .00000201  00000-0  30721-4 0  9995,2 53888  53.2157  98.4599 0001113  85.1659 274.9460 15.08842601 41890,6917.872,95.437,540.507,538.967,0.0
53888.0,STARLINK-5034,PAYLOAD,2023-06-22 02:06:00,15.0883589,0.0001195,53.2168,95.7885,95.7085,264.4043,-3.3727e-05,-8.24e-06,0.0,0 STARLINK-5034,1 53888U 22119C   23173.08750089 -.00000824  00000-0 -33727-4 0  9992,2 53888  53.2168  95.7885 0001195  95.7085 264.4043 15.08835890 41567,6917.893,95.438,540.585,538.931,0.0
53888.0,STARLINK-5034,PAYLOAD,2023-06-22 11:38:18,15.08846044,9.91e-05,53.2168,94.0039,96.717,263.3935,-0.00012533,-2.282e-05,0.0,0 STARLINK-5034,1 53888U 22119C   23173.48493606 -.00002282  00000-0 -12533-3 0  9996,2 53888  53.2168  94.0039 0000991  96.7170 263.3935 15.08846044 41627,6917.862,95.437,540.412,539.041,0.0
53888.0,STARLINK-5034,PAYLOAD,2023-06-23 03:32:09,15.08849777,0.0001139,53.2166,91.0277,87.779,272.3333,3.3785e-05,2.5e-06,0.0,0 STARLINK-5034,1 53888U 22119C   23174.14733175  .00000250  00000-0  33785-4 0  9992,2 53888  53.2166  91.0277 0001139  87.7790 272.3333 15.08849777 41728,6917.851,95.437,540.503,538.928,0.0
53888.0,STARLINK-5034,PAYLOAD,2023-06-24 01:47:33,15.08840138,0.0001027,53.2163,86.8643,89.3867,270.7242,5.5059e-05,5.89e-06,0.0,0 STARLINK-5034,1 53888U 22119C   23175.07469819  .00000589  00000-0  55059-4 0  9999,2 53888  53.2163  86.8643 0001027  89.3867 270.7242 15.08840138 41861,6917.88,95.438,540.455,539.035,0.0
53888.0,STARLINK-5034,PAYLOAD,2023-06-25 03:13:43,15.08848114,0.0001003,53.2153,82.1061,101.7211,258.3894,1.2044e-05,-9.6e-07,0.0,0 STARLINK-5034,1 53888U 22119C   23176.13453558 -.00000096  00000-0  12044-4 0  9991,2 53888  53.2153  82.1061 0001003 101.7211 258.3894 15.08848114 42025,6917.856,95.437,540.414,539.027,0.0
53888.0,STARLINK-5034,PAYLOAD,2023-06-25 23:53:44,15.08841428,0.0001108,53.2164,78.2408,86.3805,273.7314,2.4722e-05,1.06e-06,0.0,0 STARLINK-5034,1 53888U 22119C   23176.99565972  .00000106  00000-0  24722-4 0  9996,2 53888  53.2164  78.2408 0001108  86.3805 273.7314 15.08841428 42154,6917.876,95.437,540.508,538.975,0.0
53888.0,STARLINK-5034,PAYLOAD,2023-06-27 02:55:18,15.08844003,0.0001243,53.2166,73.1854,91.8634,268.25,1.8672e-06,-2.58e-06,0.0,0 STARLINK-5034,1 53888U 22119C   23178.12173985 -.00000258  00000-0  18672-5 0  9999,2 53888  53.2166  73.1854 0001243  91.8634 268.2500 15.08844003 42323,6917.868,95.437,540.593,538.873,0.0
